[
  {
    "COMMENT": "GENERATED VIA SPACETRACK.ORG API",
    "ORIGINATOR": "18 SPCS",
    "NORAD_CAT_ID": "46984",
    "OBJECT_NAME": "S6 MICHAEL FREILICH",
    "OBJECT_TYPE": "PAYLOAD",
    "CLASSIFICATION_TYPE": "U",
    "INTLDES": "20086A",
    "EPOCH": "2022-08-08 06:47:59",
    "EPOCH_MICROSECONDS": "498592",
    "MEAN_MOTION": "12.80930158",
    "ECCENTRICITY": "0.0007912",
    "INCLINATION": "66.0408",
    "RA_OF_ASC_NODE": "181.3699",
    "ARG_OF_PERICENTER": "264.8994",
    "MEAN_ANOMALY": "95.1121",
    "EPHEMERIS_TYPE": "0",
    "ELEMENT_SET_NO": "999",
    "REV_AT_EPOCH": "8000",
    "BSTAR": "0",
    "MEAN_MOTION_DOT": "-0.00000061",
    "MEAN_MOTION_DDOT": "0",
    "FILE": "3532128",
    "TLE_LINE0": "0 S6 MICHAEL FREILICH",
    "TLE_LINE1": "1 46984U 20086A   22220.28332753 -.00000061  00000-0  00000-0 0  9996",
    "TLE_LINE2": "2 46984  66.0408 181.3699 0007912 264.8994  95.1121 12.80930158 80009",
    "OBJECT_ID": "2020-086A",
    "OBJECT_NUMBER": "46984",
    "SEMIMAJOR_AXIS": "7715.870",
    "PERIOD": "112.418",
    "APOGEE": "1343.839",
    "PERIGEE": "1331.630",
    "DECAYED": "0"
  },
  {
    "COMMENT": "GENERATED VIA SPACETRACK.ORG API",
    "ORIGINATOR": "18 SPCS",
    "NORAD_CAT_ID": "46984",
    "OBJECT_NAME": "S6 MICHAEL FREILICH",
    "OBJECT_TYPE": "PAYLOAD",
    "CLASSIFICATION_TYPE": "U",
    "INTLDES": "20086A",
    "EPOCH": "2022-08-08 21:47:25",
    "EPOCH_MICROSECONDS": "573632",
    "MEAN_MOTION": "12.80930157",
    "ECCENTRICITY": "0.000792",
    "INCLINATION": "66.0407",
    "RA_OF_ASC_NODE": "180.0728",
    "ARG_OF_PERICENTER": "264.7649",
    "MEAN_ANOMALY": "95.2462",
    "EPHEMERIS_TYPE": "0",
    "ELEMENT_SET_NO": "999",
    "REV_AT_EPOCH": "8008",
    "BSTAR": "0",
    "MEAN_MOTION_DOT": "-0.00000061",
    "MEAN_MOTION_DDOT": "0",
    "FILE": "3532305",
    "TLE_LINE0": "0 S6 MICHAEL FREILICH",
    "TLE_LINE1": "1 46984U 20086A   22220.90793488 -.00000061  00000-0  00000-0 0  9991",
    "TLE_LINE2": "2 46984  66.0407 180.0728 0007920 264.7649  95.2462 12.80930157 80088",
    "OBJECT_ID": "2020-086A",
    "OBJECT_NUMBER": "46984",
    "SEMIMAJOR_AXIS": "7715.870",
    "PERIOD": "112.418",
    "APOGEE": "1343.845",
    "PERIGEE": "1331.624",
    "DECAYED": "0"
  },
  {
    "COMMENT": "GENERATED VIA SPACETRACK.ORG API",
    "ORIGINATOR": "18 SPCS",
    "NORAD_CAT_ID": "46984",
    "OBJECT_NAME": "S6 MICHAEL FREILICH",
    "OBJECT_TYPE": "PAYLOAD",
    "CLASSIFICATION_TYPE": "U",
    "INTLDES": "20086A",
    "EPOCH": "2022-08-09 07:09:34",
    "EPOCH_MICROSECONDS": "370208",
    "MEAN_MOTION": "12.80930158",
    "ECCENTRICITY": "0.0007922",
    "INCLINATION": "66.041",
    "RA_OF_ASC_NODE": "179.262",
    "ARG_OF_PERICENTER": "264.7662",
    "MEAN_ANOMALY": "95.2447",
    "EPHEMERIS_TYPE": "0",
    "ELEMENT_SET_NO": "999",
    "REV_AT_EPOCH": "8013",
    "BSTAR": "0",
    "MEAN_MOTION_DOT": "-0.00000061",
    "MEAN_MOTION_DDOT": "0",
    "FILE": "3532774",
    "TLE_LINE0": "0 S6 MICHAEL FREILICH",
    "TLE_LINE1": "1 46984U 20086A   22221.29831447 -.00000061  00000-0  00000+0 0  9991",
    "TLE_LINE2": "2 46984  66.0410 179.2620 0007922 264.7662  95.2447 12.80930158 80130",
    "OBJECT_ID": "2020-086A",
    "OBJECT_NUMBER": "46984",
    "SEMIMAJOR_AXIS": "7715.870",
    "PERIOD": "112.418",
    "APOGEE": "1343.847",
    "PERIGEE": "1331.622",
    "DECAYED": "0"
  },
  {
    "COMMENT": "GENERATED VIA SPACETRACK.ORG API",
    "ORIGINATOR": "18 SPCS",
    "NORAD_CAT_ID": "46984",
    "OBJECT_NAME": "S6 MICHAEL FREILICH",
    "OBJECT_TYPE": "PAYLOAD",
    "CLASSIFICATION_TYPE": "U",
    "INTLDES": "20086A",
    "EPOCH": "2022-08-09 07:09:34",
    "EPOCH_MICROSECONDS": "370208",
    "MEAN_MOTION": "12.80930158",
    "ECCENTRICITY": "0.0007922",
    "INCLINATION": "66.041",
    "RA_OF_ASC_NODE": "179.262",
    "ARG_OF_PERICENTER": "264.7662",
    "MEAN_ANOMALY": "95.2447",
    "EPHEMERIS_TYPE": "0",
    "ELEMENT_SET_NO": "999",
    "REV_AT_EPOCH": "8013",
    "BSTAR": "0",
    "MEAN_MOTION_DOT": "-0.00000061",
    "MEAN_MOTION_DDOT": "0",
    "FILE": "3532882",
    "TLE_LINE0": "0 S6 MICHAEL FREILICH",
    "TLE_LINE1": "1 46984U 20086A   22221.29831447 -.00000061  00000-0  00000-0 0  9992",
    "TLE_LINE2": "2 46984  66.0410 179.2620 0007922 264.7662  95.2447 12.80930158 80130",
    "OBJECT_ID": "2020-086A",
    "OBJECT_NUMBER": "46984",
    "SEMIMAJOR_AXIS": "7715.870",
    "PERIOD": "112.418",
    "APOGEE": "1343.847",
    "PERIGEE": "1331.622",
    "DECAYED": "0"
  },
  {
    "COMMENT": "GENERATED VIA SPACETRACK.ORG API",
    "ORIGINATOR": "18 SPCS",
    "NORAD_CAT_ID": "46984",
    "OBJECT_NAME": "S6 MICHAEL FREILICH",
    "OBJECT_TYPE": "PAYLOAD",
    "CLASSIFICATION_TYPE": "U",
    "INTLDES": "20086A",
    "EPOCH": "2022-08-10 05:38:43",
    "EPOCH_MICROSECONDS": "504800",
    "MEAN_MOTION": "12.8093014",
    "ECCENTRICITY": "0.0007935",
    "INCLINATION": "66.0413",
    "RA_OF_ASC_NODE": "177.3164",
    "ARG_OF_PERICENTER": "264.5224",
    "MEAN_ANOMALY": "95.4885",
    "EPHEMERIS_TYPE": "0",
    "ELEMENT_SET_NO": "999",
    "REV_AT_EPOCH": "8025",
    "BSTAR": "0",
    "MEAN_MOTION_DOT": "-0.00000061",
    "MEAN_MOTION_DDOT": "0",
    "FILE": "3533800",
    "TLE_LINE0": "0 S6 MICHAEL FREILICH",
    "TLE_LINE1": "1 46984U 20086A   22222.23522575 -.00000061  00000-0  00000-0 0  9996",
    "TLE_LINE2": "2 46984  66.0413 177.3164 0007935 264.5224  95.4885 12.80930140 80253",
    "OBJECT_ID": "2020-086A",
    "OBJECT_NUMBER": "46984",
    "SEMIMAJOR_AXIS": "7715.870",
    "PERIOD": "112.418",
    "APOGEE": "1343.857",
    "PERIGEE": "1331.612",
    "DECAYED": "0"
  },
  {
    "COMMENT": "GENERATED VIA SPACETRACK.ORG API",
    "ORIGINATOR": "18 SPCS",
    "NORAD_CAT_ID": "46984",
    "OBJECT_NAME": "S6 MICHAEL FREILICH",
    "OBJECT_TYPE": "PAYLOAD",
    "CLASSIFICATION_TYPE": "U",
    "INTLDES": "20086A",
    "EPOCH": "2022-08-11 06:00:18",
    "EPOCH_MICROSECONDS": "388512",
    "MEAN_MOTION": "12.80930146",
    "ECCENTRICITY": "0.0007942",
    "INCLINATION": "66.0415",
    "RA_OF_ASC_NODE": "175.2082",
    "ARG_OF_PERICENTER": "264.0567",
    "MEAN_ANOMALY": "95.9544",
    "EPHEMERIS_TYPE": "0",
    "ELEMENT_SET_NO": "999",
    "REV_AT_EPOCH": "8038",
    "BSTAR": "0",
    "MEAN_MOTION_DOT": "-0.00000061",
    "MEAN_MOTION_DDOT": "0",
    "FILE": "3534319",
    "TLE_LINE0": "0 S6 MICHAEL FREILICH",
    "TLE_LINE1": "1 46984U 20086A   22223.25021283 -.00000061  00000-0  00000-0 0  9999",
    "TLE_LINE2": "2 46984  66.0415 175.2082 0007942 264.0567  95.9544 12.80930146 80381",
    "OBJECT_ID": "2020-086A",
    "OBJECT_NUMBER": "46984",
    "SEMIMAJOR_AXIS": "7715.870",
    "PERIOD": "112.418",
    "APOGEE": "1343.862",
    "PERIGEE": "1331.607",
    "DECAYED": "0"
  },
  {
    "COMMENT": "GENERATED VIA SPACETRACK.ORG API",
    "ORIGINATOR": "18 SPCS",
    "NORAD_CAT_ID": "46984",
    "OBJECT_NAME": "S6 MICHAEL FREILICH",
    "OBJECT_TYPE": "PAYLOAD",
    "CLASSIFICATION_TYPE": "U",
    "INTLDES": "20086A",
    "EPOCH": "2022-08-12 06:21:53",
    "EPOCH_MICROSECONDS": "249760",
    "MEAN_MOTION": "12.80930221",
    "ECCENTRICITY": "0.0007928",
    "INCLINATION": "66.0414",
    "RA_OF_ASC_NODE": "173.0997",
    "ARG_OF_PERICENTER": "264.6174",
    "MEAN_ANOMALY": "95.3939",
    "EPHEMERIS_TYPE": "0",
    "ELEMENT_SET_NO": "999",
    "REV_AT_EPOCH": "8051",
    "BSTAR": "0",
    "MEAN_MOTION_DOT": "-0.00000061",
    "MEAN_MOTION_DDOT": "0",
    "FILE": "3535262",
    "TLE_LINE0": "0 S6 MICHAEL FREILICH",
    "TLE_LINE1": "1 46984U 20086A   22224.26519965 -.00000061  00000-0  00000+0 0  9999",
    "TLE_LINE2": "2 46984  66.0414 173.0997 0007928 264.6174  95.3939 12.80930221 80516",
    "OBJECT_ID": "2020-086A",
    "OBJECT_NUMBER": "46984",
    "SEMIMAJOR_AXIS": "7715.869",
    "PERIOD": "112.418",
    "APOGEE": "1343.851",
    "PERIGEE": "1331.617",
    "DECAYED": "0"
  },
  {
    "COMMENT": "GENERATED VIA SPACETRACK.ORG API",
    "ORIGINATOR": "18 SPCS",
    "NORAD_CAT_ID": "46984",
    "OBJECT_NAME": "S6 MICHAEL FREILICH",
    "OBJECT_TYPE": "PAYLOAD",
    "CLASSIFICATION_TYPE": "U",
    "INTLDES": "20086A",
    "EPOCH": "2022-08-12 06:21:53",
    "EPOCH_MICROSECONDS": "249760",
    "MEAN_MOTION": "12.80930221",
    "ECCENTRICITY": "0.0007928",
    "INCLINATION": "66.0414",
    "RA_OF_ASC_NODE": "173.0997",
    "ARG_OF_PERICENTER": "264.6174",
    "MEAN_ANOMALY": "95.3939",
    "EPHEMERIS_TYPE": "0",
    "ELEMENT_SET_NO": "999",
    "REV_AT_EPOCH": "8051",
    "BSTAR": "0",
    "MEAN_MOTION_DOT": "-0.00000061",
    "MEAN_MOTION_DDOT": "0",
    "FILE": "3535350",
    "TLE_LINE0": "0 S6 MICHAEL FREILICH",
    "TLE_LINE1": "1 46984U 20086A   22224.26519965 -.00000061  00000-0  00000-0 0  9990",
    "TLE_LINE2": "2 46984  66.0414 173.0997 0007928 264.6174  95.3939 12.80930221 80516",
    "OBJECT_ID": "2020-086A",
    "OBJECT_NUMBER": "46984",
    "SEMIMAJOR_AXIS": "7715.869",
    "PERIOD": "112.418",
    "APOGEE": "1343.851",
    "PERIGEE": "1331.617",
    "DECAYED": "0"
  }
]